[{"OBJECT_NAME":"STARLINK-34749","OBJECT_ID":"2025-211Z","EPOCH":"2026-03-09T16:00:18.794016","MEAN_MOTION":15.05648009,"ECCENTRICITY":9.926e-5,"INCLINATION":97.6041,"RA_OF_ASC_NODE":114.1235,"ARG_OF_PERICENTER":160.2549,"MEAN_ANOMALY":199.8716,"EPHEMERIS_TYPE":0,"CLASSIFICATION_TYPE":"U","NORAD_CAT_ID":65675,"ELEMENT_SET_NO":999,"REV_AT_EPOCH":2704,"BSTAR":9.1968073e-5,"MEAN_MOTION_DOT":1.266e-5,"MEAN_MOTION_DDOT":0},{"OBJECT_NAME":"FENGYUN 1C DEB","OBJECT_ID":"1999-025XU","EPOCH":"2026-03-09T14:41:45.749184","MEAN_MOTION":14.51911005,"ECCENTRICITY":0.0242057,"INCLINATION":98.7565,"RA_OF_ASC_NODE":289.113,"ARG_OF_PERICENTER":5.0676,"MEAN_ANOMALY":56.028,"EPHEMERIS_TYPE":0,"CLASSIFICATION_TYPE":"U","NORAD_CAT_ID":30259,"ELEMENT_SET_NO":999,"REV_AT_EPOCH":734,"BSTAR":0.00035048,"MEAN_MOTION_DOT":2.01e-5,"MEAN_MOTION_DDOT":0}]
